{
  "norad_id": 57636,
  "name": "STARLINK-30330",
  "history": [
    {
      "epoch": "2026-03-28T17:19:16.470624Z",
      "apogee_km": 483.7817739764487,
      "perigee_km": 482.2894689312825,
      "latitude_deg": 2.0791908879812392e-05,
      "longitude_deg": -100.59249941017221,
      "height_km": 482.7330857683517,
      "semi_major_axis_km": 6861.172621453865,
      "eccentricity": 0.00010875,
      "inclination_deg": 43.0019,
      "raan_deg": 345.3642,
      "arg_perigee_deg": 276.0921,
      "mean_anomaly_deg": 83.9807,
      "mean_motion_rev_day": 15.275845
    }
  ]
}